{"type": "FeatureCollection", "features": [ {"type": "Feature", "properties": {"norad_id": 45807, "name": "BEIDOU-3 G3 (C61)", "group": "gnss", "lat": -0.0484270897304209, "lon": 64.84821838875291, "alt_km": 35768.97893853368, "timestamp": "2025-12-24T14:43:29.245968+00:00", "meta": {"OBJECT_NAME": "BEIDOU-3 G3 (C61)", "OBJECT_ID": "2020-040A", "EPOCH": "2025-12-24T06:46:41.471616", "MEAN_MOTION": 1.00268173, "ECCENTRICITY": 0.00065833, "INCLINATION": 2.0173, "RA_OF_ASC_NODE": 66.6796, "ARG_OF_PERICENTER": 309.1585, "MEAN_ANOMALY": 289.4373, "EPHEMERIS_TYPE": 0, "CLASSIFICATION_TYPE": "U", "NORAD_CAT_ID": 45807, "ELEMENT_SET_NO": 999, "REV_AT_EPOCH": 2031, "BSTAR": 0, "MEAN_MOTION_DOT": -3.33e-06, "MEAN_MOTION_DDOT": 0}, "tle": {"line1": "1 45807U 20040A   25358.28242444 -.00000333  00000+0  00000+0 0  9991", "line2": "2 45807   2.0173  66.6796 0006583 309.1585 289.4373  1.00268173 20312"}}, "geometry": {"type": "Point", "coordinates": [64.84821838875291, -0.0484270897304209]}}, {"type": "Feature", "properties": {"norad_id": 45854, "name": "GPS BIII-3  (PRN 23)", "group": "gnss", "lat": -55.621124943034694, "lon": -39.19876237474424, "alt_km": 20144.54832600177, "timestamp": "2025-12-24T14:43:29.245979+00:00", "meta": {"OBJECT_NAME": "GPS BIII-3  (PRN 23)", "OBJECT_ID": "2020-041A", "EPOCH": "2025-12-24T07:36:15.586848", "MEAN_MOTION": 2.00561688, "ECCENTRICITY": 0.00606528, "INCLINATION": 56.5546, "RA_OF_ASC_NODE": 35.7353, "ARG_OF_PERICENTER": 203.7393, "MEAN_ANOMALY": 219.8521, "EPHEMERIS_TYPE": 0, "CLASSIFICATION_TYPE": "U", "NORAD_CAT_ID": 45854, "ELEMENT_SET_NO": 999, "REV_AT_EPOCH": 4053, "BSTAR": 0, "MEAN_MOTION_DOT": -4.9e-07, "MEAN_MOTION_DDOT": 0}, "tle": {"line1": "1 45854U 20041A   25358.31684707 -.00000049  00000+0  00000+0 0  9994", "line2": "2 45854  56.5546  35.7353 0060652 203.7393 219.8521  2.00561688 40537"}}, "geometry": {"type": "Point", "coordinates": [-39.19876237474424, -55.621124943034694]}}, {"type": "Feature", "properties": {"norad_id": 46114, "name": "GALAXY 30 (WAAS/PRN 135)", "group": "gnss", "lat": -0.011803274764613483, "lon": -170.7750040285742, "alt_km": 35785.16218101396, "timestamp": "2025-12-24T14:43:29.245993+00:00", "meta": {"OBJECT_NAME": "GALAXY 30 (WAAS/PRN 135)", "OBJECT_ID": "2020-056C", "EPOCH": "2025-12-24T05:57:38.851776", "MEAN_MOTION": 1.00271057, "ECCENTRICITY": 0.00021028, "INCLINATION": 0.014, "RA_OF_ASC_NODE": 325.0857, "ARG_OF_PERICENTER": 306.9957, "MEAN_ANOMALY": 145.3551, "EPHEMERIS_TYPE": 0, "CLASSIFICATION_TYPE": "U", "NORAD_CAT_ID": 46114, "ELEMENT_SET_NO": 999, "REV_AT_EPOCH": 1953, "BSTAR": 0, "MEAN_MOTION_DOT": 5.8e-07, "MEAN_MOTION_DDOT": 0}, "tle": {"line1": "1 46114U 20056C   25358.24836634  .00000058  00000+0  00000+0 0  9999", "line2": "2 46114   0.0140 325.0857 0002102 306.9957 145.3551  1.00271057 19532"}}, "geometry": {"type": "Point", "coordinates": [-170.7750040285742, -0.011803274764613483]}}, {"type": "Feature", "properties": {"norad_id": 46805, "name": "COSMOS 2547 (705K)", "group": "gnss", "lat": -0.10463317606928854, "lon": 18.35397353597711, "alt_km": 19120.047512966503, "timestamp": "2025-12-24T14:43:29.246004+00:00", "meta": {"OBJECT_NAME": "COSMOS 2547 (705K)", "OBJECT_ID": "2020-075A", "EPOCH": "2025-12-22T23:18:06.838272", "MEAN_MOTION": 2.13100223, "ECCENTRICITY": 0.00061117, "INCLINATION": 64.5968, "RA_OF_ASC_NODE": 198.3547, "ARG_OF_PERICENTER": 227.5721, "MEAN_ANOMALY": 132.44, "EPHEMERIS_TYPE": 0, "CLASSIFICATION_TYPE": "U", "NORAD_CAT_ID": 46805, "ELEMENT_SET_NO": 999, "REV_AT_EPOCH": 4015, "BSTAR": 0, "MEAN_MOTION_DOT": 9.5e-07, "MEAN_MOTION_DDOT": 0}, "tle": {"line1": "1 46805U 20075A   25356.97091248  .00000095  00000+0  00000+0 0  9990", "line2": "2 46805  64.5968 198.3547 0006111 227.5721 132.4400  2.13100223 40153"}}, "geometry": {"type": "Point", "coordinates": [18.35397353597711, -0.10463317606928854]}}, {"type": "Feature", "properties": {"norad_id": 46826, "name": "GPS BIII-4  (PRN 14)", "group": "gnss", "lat": -49.31239904620726, "lon": 95.56072643772949, "alt_km": 20066.95702610712, "timestamp": "2025-12-24T14:43:29.246016+00:00", "meta": {"OBJECT_NAME": "GPS BIII-4  (PRN 14)", "OBJECT_ID": "2020-078A", "EPOCH": "2025-12-16T01:06:13.902336", "MEAN_MOTION": 2.00566891, "ECCENTRICITY": 0.00647535, "INCLINATION": 54.0144, "RA_OF_ASC_NODE": 218.2068, "ARG_OF_PERICENTER": 203.3802, "MEAN_ANOMALY": 339.3962, "EPHEMERIS_TYPE": 0, "CLASSIFICATION_TYPE": "U", "NORAD_CAT_ID": 46826, "ELEMENT_SET_NO": 999, "REV_AT_EPOCH": 3783, "BSTAR": 0, "MEAN_MOTION_DOT": 6.7e-07, "MEAN_MOTION_DDOT": 0}, "tle": {"line1": "1 46826U 20078A   25350.04599424  .00000067  00000+0  00000+0 0  9996", "line2": "2 46826  54.0144 218.2068 0064753 203.3802 339.3962  2.00566891 37839"}}, "geometry": {"type": "Point", "coordinates": [95.56072643772949, -49.31239904620726]}}, {"type": "Feature", "properties": {"norad_id": 48859, "name": "GPS BIII-5  (PRN 11)", "group": "gnss", "lat": 52.05976114011059, "lon": 42.34845940860533, "alt_km": 20238.5715918127, "timestamp": "2025-12-24T14:43:29.246029+00:00", "meta": {"OBJECT_NAME": "GPS BIII-5  (PRN 11)", "OBJECT_ID": "2021-054A", "EPOCH": "2025-12-08T04:14:32.423424", "MEAN_MOTION": 2.00553627, "ECCENTRICITY": 0.0024678, "INCLINATION": 55.2581, "RA_OF_ASC_NODE": 340.1367, "ARG_OF_PERICENTER": 233.3993, "MEAN_ANOMALY": 212.8594, "EPHEMERIS_TYPE": 0, "CLASSIFICATION_TYPE": "U", "NORAD_CAT_ID": 48859, "ELEMENT_SET_NO": 999, "REV_AT_EPOCH": 3292, "BSTAR": 0, "MEAN_MOTION_DOT": -8.6e-07, "MEAN_MOTION_DDOT": 0}, "tle": {"line1": "1 48859U 21054A   25342.17676416 -.00000086  00000+0  00000+0 0  9993", "line2": "2 48859  55.2581 340.1367 0024678 233.3993 212.8594  2.00553627 32922"}}, "geometry": {"type": "Point", "coordinates": [42.34845940860533, 52.05976114011059]}}, {"type": "Feature", "properties": {"norad_id": 49336, "name": "QZS-1R (QZSS/PRN 196)", "group": "gnss", "lat": 8.754569716049664, "lon": 93.93049852906864, "alt_km": 36287.08562722637, "timestamp": "2025-12-24T14:43:29.246041+00:00", "meta": {"OBJECT_NAME": "QZS-1R (QZSS/PRN 196)", "OBJECT_ID": "2021-096A", "EPOCH": "2025-12-23T14:03:59.721696", "MEAN_MOTION": 1.00253792, "ECCENTRICITY": 0.07574903, "INCLINATION": 37.0985, "RA_OF_ASC_NODE": 82.1998, "ARG_OF_PERICENTER": 271.5244, "MEAN_ANOMALY": 83.7292, "EPHEMERIS_TYPE": 0, "CLASSIFICATION_TYPE": "U", "NORAD_CAT_ID": 49336, "ELEMENT_SET_NO": 999, "REV_AT_EPOCH": 1525, "BSTAR": 0, "MEAN_MOTION_DOT": -2.42e-06, "MEAN_MOTION_DDOT": 0}, "tle": {"line1": "1 49336U 21096A   25357.58610789 -.00000242  00000+0  00000+0 0  9996", "line2": "2 49336  37.0985  82.1998 0757490 271.5244  83.7292  1.00253792 15256"}}, "geometry": {"type": "Point", "coordinates": [93.93049852906864, 8.754569716049664]}}, {"type": "Feature", "properties": {"norad_id": 49809, "name": "GSAT0223 (GALILEO 27)", "group": "gnss", "lat": -55.94304172330814, "lon": -121.19239338266192, "alt_km": 23214.935677818477, "timestamp": "2025-12-24T14:43:29.246055+00:00", "meta": {"OBJECT_NAME": "GSAT0223 (GALILEO 27)", "OBJECT_ID": "2021-116A", "EPOCH": "2025-12-22T17:26:14.878176", "MEAN_MOTION": 1.70475871, "ECCENTRICITY": 0.000441, "INCLINATION": 57.2174, "RA_OF_ASC_NODE": 346.4438, "ARG_OF_PERICENTER": 255.815, "MEAN_ANOMALY": 286.3499, "EPHEMERIS_TYPE": 0, "CLASSIFICATION_TYPE": "U", "NORAD_CAT_ID": 49809, "ELEMENT_SET_NO": 999, "REV_AT_EPOCH": 2517, "BSTAR": 0, "MEAN_MOTION_DOT": -6.4e-07, "MEAN_MOTION_DDOT": 0}, "tle": {"line1": "1 49809U 21116A   25356.72656109 -.00000064  00000+0  00000+0 0  9997", "line2": "2 49809  57.2174 346.4438 0004410 255.8150 286.3499  1.70475871 25171"}}, "geometry": {"type": "Point", "coordinates": [-121.19239338266192, -55.94304172330814]}}, {"type": "Feature", "properties": {"norad_id": 49810, "name": "GSAT0224 (GALILEO 28)", "group": "gnss", "lat": 10.790154166084667, "lon": -6.566013949909584, "alt_km": 23225.00453302297, "timestamp": "2025-12-24T14:43:29.246067+00:00", "meta": {"OBJECT_NAME": "GSAT0224 (GALILEO 28)", "OBJECT_ID": "2021-116B", "EPOCH": "2025-12-23T03:00:59.528736", "MEAN_MOTION": 1.70475912, "ECCENTRICITY": 0.00037519, "INCLINATION": 57.2181, "RA_OF_ASC_NODE": 346.4317, "ARG_OF_PERICENTER": 260.8078, "MEAN_ANOMALY": 278.9053, "EPHEMERIS_TYPE": 0, "CLASSIFICATION_TYPE": "U", "NORAD_CAT_ID": 49810, "ELEMENT_SET_NO": 999, "REV_AT_EPOCH": 2520, "BSTAR": 0, "MEAN_MOTION_DOT": -6.3e-07, "MEAN_MOTION_DDOT": 0}, "tle": {"line1": "1 49810U 21116B   25357.12568899 -.00000063  00000+0  00000+0 0  9991", "line2": "2 49810  57.2181 346.4317 0003751 260.8078 278.9053  1.70475912 25202"}}, "geometry": {"type": "Point", "coordinates": [-6.566013949909584, 10.790154166084667]}}, {"type": "Feature", "properties": {"norad_id": 52984, "name": "COSMOS 2557 (706K)", "group": "gnss", "lat": 46.36779984718897, "lon": -9.218492406077353, "alt_km": 19148.930172352448, "timestamp": "2025-12-24T14:43:29.246080+00:00", "meta": {"OBJECT_NAME": "COSMOS 2557 (706K)", "OBJECT_ID": "2022-075A", "EPOCH": "2025-12-24T01:47:30.472800", "MEAN_MOTION": 2.13102037, "ECCENTRICITY": 0.00135405, "INCLINATION": 64.4034, "RA_OF_ASC_NODE": 320.6533, "ARG_OF_PERICENTER": 278.4608, "MEAN_ANOMALY": 81.3862, "EPHEMERIS_TYPE": 0, "CLASSIFICATION_TYPE": "U", "NORAD_CAT_ID": 52984, "ELEMENT_SET_NO": 999, "REV_AT_EPOCH": 2698, "BSTAR": 0, "MEAN_MOTION_DOT": -3.6e-07, "MEAN_MOTION_DDOT": 0}, "tle": {"line1": "1 52984U 22075A   25358.07465825 -.00000036  00000+0  00000+0 0  9992", "line2": "2 52984  64.4034 320.6533 0013540 278.4608  81.3862  2.13102037 26983"}}, "geometry": {"type": "Point", "coordinates": [-9.218492406077353, 46.36779984718897]}}]}